OBJECT_NAME,OBJECT_ID,EPOCH,MEAN_MOTION,ECCENTRICITY,INCLINATION,RA_OF_ASC_NODE,ARG_OF_PERICENTER,MEAN_ANOMALY,EPHEMERIS_TYPE,CLASSIFICATION_TYPE,NORAD_CAT_ID,ELEMENT_SET_NO,REV_AT_EPOCH,BSTAR,MEAN_MOTION_DOT,MEAN_MOTION_DDOT
BEIDOU-2 IGSO-5 (C10),2011-073A,2026-06-10T06:52:15.720384,1.00274435,.0113711,47.6920,271.6328,221.6344,320.2028,0,U,37948,999,5306,0,-.165E-5,0
LUCH 5A (SDCM/PRN 140),2011-074B,2026-06-10T12:22:24.011616,1.00269771,.0002232,8.7362,73.9054,19.4449,158.1067,0,U,37951,999,5298,0,-.36E-6,0
BEIDOU-2 G5 (C05),2012-008A,2026-06-10T11:51:32.065632,1.00270457,.0009265,3.5559,69.7396,275.0536,150.6137,0,U,38091,999,5230,0,.74E-6,0
BEIDOU-2 M3 (C11),2012-018A,2026-06-08T14:20:11.344992,1.86230188,.00199662,55.7660,305.1650,274.7700,84.9929,0,U,38250,999,9578,0,-.57E-6,0
BEIDOU-2 M4 (C12),2012-018B,2026-06-09T14:29:07.108800,1.86229817,.00111465,55.6651,304.3456,277.0468,82.8157,0,U,38251,999,9580,0,-.6E-6,0
SES-5 (EGNOS/PRN 136),2012-036A,2026-06-10T08:10:58.461888,1.00271636,.0001867,0.0500,310.7318,130.5092,305.1935,0,U,38652,999,4438,0,.51E-6,0
BEIDOU-2 M6 (C14),2012-050B,2026-06-09T07:31:11.610048,1.86230901,.001385,56.5375,63.1548,356.2475,3.7665,0,U,38775,999,9316,0,-.47E-6,0
GSAT-10 (GAGAN/PRN 128),2012-051B,2026-06-10T10:15:53.922816,1.00271089,.0007874,0.0158,292.7106,157.4389,45.6464,0,U,38779,999,5003,0,-.147E-5,0
GPS BIIF-3  (PRN 24),2012-053A,2026-06-09T08:08:24.296640,2.00567341,.01798481,53.5846,143.9208,65.6483,296.2179,0,U,38833,999,9928,0,.103E-5,0
GSAT0103 (GALILEO-FM3),2012-055A,2026-06-09T06:19:17.622624,1.70473394,.0005068,55.8019,101.7630,304.1046,55.8194,0,U,38857,999,8487,0,.24E-6,0
BEIDOU-2 G6 (C02),2012-059A,2026-06-10T08:33:25.728192,1.00273857,.0009969,4.4028,73.5970,324.9499,72.5416,0,U,38953,999,4984,0,-.16E-5,0
LUCH 5B (SDCM/PRN 125),2012-061A,2026-06-09T23:31:34.999680,1.00273458,.00018473,10.4653,49.9507,137.3394,47.6645,0,U,38977,999,4953,0,-.125E-5,0
COSMOS 2485 (747),2013-019A,2026-06-07T01:19:59.278080,2.13103506,.00234642,65.4143,73.9444,234.9067,124.8959,0,U,39155,999,10206,0,-.9E-7,0
GPS BIIF-4  (PRN 27),2013-023A,2026-06-09T04:56:29.038560,2.00563489,.01415922,54.5104,269.2989,51.0120,310.2585,0,U,39166,999,9572,0,-.34E-6,0
IRNSS-1A,2013-034A,2026-05-22T20:37:38.469792,1.00280263,.00166187,35.6649,64.2334,185.3754,355.4646,0,U,39199,999,4711,0,.59E-6,0
GPS BIIF-5  (PRN 30),2014-008A,2026-06-09T04:58:46.170048,2.00559266,.00842391,53.6534,149.6452,231.1478,128.1054,0,U,39533,999,8952,0,.109E-5,0
ASTRA 5B (EGNOS/PRN 123),2014-011B,2026-06-10T08:16:05.472192,1.00270662,.0001966,0.0529,322.7323,104.7694,338.7205,0,U,39617,999,4459,0,.154E-5,0
COSMOS 2492 (754),2014-012A,2026-06-09T08:39:27.110016,2.13103521,.00104861,65.3026,314.2024,325.9791,33.9512,0,U,39620,999,9507,0,-.33E-6,0
IRNSS-1B,2014-017A,2026-06-09T20:57:27.250848,1.00274052,.00229837,28.9342,240.5292,189.3707,197.7737,0,U,39635,999,4472,0,.122E-5,0
LUCH 5V (SDCM/PRN 141),2014-023A,2026-06-10T03:28:34.682304,1.00266717,.00027976,5.1149,69.8220,35.5646,299.9192,0,U,39727,999,4428,0,-.251E-5,0
GPS BIIF-6  (PRN 06),2014-026A,2026-06-09T23:33:21.175776,2.00561453,.003823,56.5019,331.7980,326.6683,33.0994,0,U,39741,999,8839,0,-.59E-6,0
COSMOS 2500 (755),2014-032A,2026-06-09T12:44:02.760864,2.13106105,.00070816,65.2371,313.9442,183.5959,176.3964,0,U,40001,999,9329,0,-.34E-6,0
GPS BIIF-7  (PRN 09),2014-045A,2026-06-10T01:45:22.339872,2.00557900,.0033003,55.3487,88.7484,118.3358,241.9880,0,U,40105,999,8593,0,-.8E-7,0
GSAT0201 (GALILEO 5),2014-050A,2026-06-09T07:58:17.347008,1.85520027,.16733008,48.8841,273.7586,179.0833,181.3092,0,U,40128,999,7817,0,-.53E-6,0
GSAT0202 (GALILEO 6),2014-050B,2026-06-09T14:06:18.101664,1.85520607,.16746766,48.9007,272.8335,179.8278,180.2807,0,U,40129,999,8034,0,-.52E-6,0
IRNSS-1C,2014-061A,2026-06-10T08:33:10.750752,1.00270410,.0022669,6.5011,89.0585,1.6512,19.3150,0,U,40269,999,4262,0,-.145E-5,0
GPS BIIF-8  (PRN 03),2014-068A,2026-06-09T10:40:59.117088,2.00575640,.00668778,56.9823,31.2530,70.2914,290.4821,0,U,40294,999,8505,0,-.64E-6,0
COSMOS 2501 (702K),2014-075A,2026-06-09T07:45:34.785792,2.13101469,.00224736,63.6158,190.6443,212.2153,147.7161,0,U,40315,999,8968,0,.109E-5,0
GPS BIIF-9  (PRN 26),2015-013A,2026-06-09T14:00:04.889952,2.00551895,.01094014,53.1683,204.4923,40.1375,320.7446,0,U,40534,999,8167,0,.81E-6,0
GSAT0203 (GALILEO 7),2015-017A,2026-06-08T09:56:18.112128,1.70476076,.00020951,56.7896,341.8347,280.5229,79.4690,0,U,40544,999,6905,0,-.63E-6,0
GSAT0204 (GALILEO 8),2015-017B,2026-06-09T20:13:58.530720,1.70475572,.00018782,56.7980,341.8144,250.6263,109.3692,0,U,40545,999,3212,0,-.63E-6,0
